{
  "norad_id": 65104,
  "name": "STARLINK-34481",
  "history": [
    {
      "epoch": "2026-03-28T21:32:55.787424Z",
      "apogee_km": 476.0160218700403,
      "perigee_km": 474.3931505824212,
      "latitude_deg": -2.4332725180131297e-05,
      "longitude_deg": 147.68041935088212,
      "height_km": 475.93157062165454,
      "semi_major_axis_km": 6853.34158622623,
      "eccentricity": 0.0001184,
      "inclination_deg": 53.1605,
      "raan_deg": 297.2246,
      "arg_perigee_deg": 77.8123,
      "mean_anomaly_deg": 282.301,
      "mean_motion_rev_day": 15.30203511
    }
  ]
}